STARLINK-3980           
1 52611U 22052P   26068.81174791  .00000218  00000+0  31785-4 0  9994
2 52611  53.2164 283.5749 0001359 102.7487 257.3657 15.08837753210806
2023-069B               
1 56732U 23069B   26068.54706144  .00006772  00000+0  42420-3 0  9992
2 56732  41.0081 274.4606 0011652 279.7432  80.2064 15.09579619155167
