[{"OBJECT_NAME":"STARLINK-3980","OBJECT_ID":"2022-052P","EPOCH":"2026-03-09T19:28:55.019424","MEAN_MOTION":15.08837753,"ECCENTRICITY":0.00013595,"INCLINATION":53.2164,"RA_OF_ASC_NODE":283.5749,"ARG_OF_PERICENTER":102.7487,"MEAN_ANOMALY":257.3657,"EPHEMERIS_TYPE":0,"CLASSIFICATION_TYPE":"U","NORAD_CAT_ID":52611,"ELEMENT_SET_NO":999,"REV_AT_EPOCH":21080,"BSTAR":3.1784786e-5,"MEAN_MOTION_DOT":2.18e-6,"MEAN_MOTION_DDOT":0},{"OBJECT_NAME":"OBJECT B","OBJECT_ID":"2023-069B","EPOCH":"2026-03-09T13:07:46.108416","MEAN_MOTION":15.09579619,"ECCENTRICITY":0.00116524,"INCLINATION":41.0081,"RA_OF_ASC_NODE":274.4606,"ARG_OF_PERICENTER":279.7432,"MEAN_ANOMALY":80.2064,"EPHEMERIS_TYPE":0,"CLASSIFICATION_TYPE":"U","NORAD_CAT_ID":56732,"ELEMENT_SET_NO":999,"REV_AT_EPOCH":15516,"BSTAR":0.00042419683,"MEAN_MOTION_DOT":6.772e-5,"MEAN_MOTION_DDOT":0}]
